[{"OBJECT_NAME":"IRIDIUM 33 DEB","OBJECT_ID":"1997-051GC","EPOCH":"2026-04-26T00:30:21.871872","MEAN_MOTION":14.43434837,"ECCENTRICITY":0.00325276,"INCLINATION":86.3404,"RA_OF_ASC_NODE":314.5817,"ARG_OF_PERICENTER":49.2149,"MEAN_ANOMALY":102.637,"EPHEMERIS_TYPE":0,"CLASSIFICATION_TYPE":"U","NORAD_CAT_ID":34487,"ELEMENT_SET_NO":999,"REV_AT_EPOCH":90185,"BSTAR":0.00015696619,"MEAN_MOTION_DOT":5.54e-6,"MEAN_MOTION_DDOT":0},{"OBJECT_NAME":"IRIDIUM 33 DEB","OBJECT_ID":"1997-051GH","EPOCH":"2026-04-25T05:06:01.075680","MEAN_MOTION":14.28570693,"ECCENTRICITY":0.0184874,"INCLINATION":86.4703,"RA_OF_ASC_NODE":280.5458,"ARG_OF_PERICENTER":167.7052,"MEAN_ANOMALY":7.5808,"EPHEMERIS_TYPE":0,"CLASSIFICATION_TYPE":"U","NORAD_CAT_ID":34492,"ELEMENT_SET_NO":999,"REV_AT_EPOCH":86962,"BSTAR":0.0051587557,"MEAN_MOTION_DOT":0.00015585,"MEAN_MOTION_DDOT":0},{"OBJECT_NAME":"IRIDIUM 33 DEB","OBJECT_ID":"1997-051GN","EPOCH":"2026-04-26T15:08:18.254112","MEAN_MOTION":14.27960617,"ECCENTRICITY":0.0077215,"INCLINATION":86.2812,"RA_OF_ASC_NODE":354.7704,"ARG_OF_PERICENTER":263.8696,"MEAN_ANOMALY":124.8489,"EPHEMERIS_TYPE":0,"CLASSIFICATION_TYPE":"U","NORAD_CAT_ID":34497,"ELEMENT_SET_NO":999,"REV_AT_EPOCH":88808,"BSTAR":0.0005171,"MEAN_MOTION_DOT":1.34e-5,"MEAN_MOTION_DDOT":0},{"OBJECT_NAME":"IRIDIUM 33 DEB","OBJECT_ID":"1997-051GZ","EPOCH":"2026-04-26T19:00:54.091008","MEAN_MOTION":14.39427031,"ECCENTRICITY":0.0066737,"INCLINATION":86.3715,"RA_OF_ASC_NODE":45.3035,"ARG_OF_PERICENTER":88.9934,"MEAN_ANOMALY":271.891,"EPHEMERIS_TYPE":0,"CLASSIFICATION_TYPE":"U","NORAD_CAT_ID":34508,"ELEMENT_SET_NO":999,"REV_AT_EPOCH":89251,"BSTAR":0.0012662,"MEAN_MOTION_DOT":4.065e-5,"MEAN_MOTION_DDOT":0},{"OBJECT_NAME":"IRIDIUM 33 DEB","OBJECT_ID":"1997-051HN","EPOCH":"2026-04-26T21:09:55.683072","MEAN_MOTION":14.65236296,"ECCENTRICITY":0.0004217,"INCLINATION":86.3787,"RA_OF_ASC_NODE":330.9761,"ARG_OF_PERICENTER":131.3023,"MEAN_ANOMALY":228.8553,"EPHEMERIS_TYPE":0,"CLASSIFICATION_TYPE":"U","NORAD_CAT_ID":34521,"ELEMENT_SET_NO":999,"REV_AT_EPOCH":90450,"BSTAR":0.0010558,"MEAN_MOTION_DOT":5.708e-5,"MEAN_MOTION_DDOT":0},{"OBJECT_NAME":"IRIDIUM 33 DEB","OBJECT_ID":"1997-051HS","EPOCH":"2026-04-26T21:27:09.580032","MEAN_MOTION":14.43281532,"ECCENTRICITY":0.0005421,"INCLINATION":86.3754,"RA_OF_ASC_NODE":349.1609,"ARG_OF_PERICENTER":29.0327,"MEAN_ANOMALY":345.6999,"EPHEMERIS_TYPE":0,"CLASSIFICATION_TYPE":"U","NORAD_CAT_ID":34525,"ELEMENT_SET_NO":999,"REV_AT_EPOCH":90037,"BSTAR":0.00026122,"MEAN_MOTION_DOT":8.99e-6,"MEAN_MOTION_DDOT":0},{"OBJECT_NAME":"IRIDIUM 33 DEB","OBJECT_ID":"1997-051HW","EPOCH":"2026-04-26T13:56:14.117280","MEAN_MOTION":14.40795522,"ECCENTRICITY":0.0006886,"INCLINATION":86.3645,"RA_OF_ASC_NODE":337.9505,"ARG_OF_PERICENTER":109.4997,"MEAN_ANOMALY":250.6946,"EPHEMERIS_TYPE":0,"CLASSIFICATION_TYPE":"U","NORAD_CAT_ID":34529,"ELEMENT_SET_NO":999,"REV_AT_EPOCH":90083,"BSTAR":0.00017863,"MEAN_MOTION_DOT":5.91e-6,"MEAN_MOTION_DDOT":0},{"OBJECT_NAME":"IRIDIUM 33 DEB","OBJECT_ID":"1997-051JF","EPOCH":"2026-04-26T18:11:37.573728","MEAN_MOTION":14.43484796,"ECCENTRICITY":0.0032404,"INCLINATION":86.2722,"RA_OF_ASC_NODE":306.3889,"ARG_OF_PERICENTER":237.0508,"MEAN_ANOMALY":252.4091,"EPHEMERIS_TYPE":0,"CLASSIFICATION_TYPE":"U","NORAD_CAT_ID":34538,"ELEMENT_SET_NO":999,"REV_AT_EPOCH":89703,"BSTAR":0.00064002,"MEAN_MOTION_DOT":2.196e-5,"MEAN_MOTION_DDOT":0},{"OBJECT_NAME":"IRIDIUM 33 DEB","OBJECT_ID":"1997-051JH","EPOCH":"2026-04-26T20:09:53.576352","MEAN_MOTION":14.78426023,"ECCENTRICITY":0.001645,"INCLINATION":86.3085,"RA_OF_ASC_NODE":245.6563,"ARG_OF_PERICENTER":67.225,"MEAN_ANOMALY":58.3874,"EPHEMERIS_TYPE":0,"CLASSIFICATION_TYPE":"U","NORAD_CAT_ID":34540,"ELEMENT_SET_NO":999,"REV_AT_EPOCH":91015,"BSTAR":0.0015293,"MEAN_MOTION_DOT":0.00011199,"MEAN_MOTION_DDOT":0},{"OBJECT_NAME":"IRIDIUM 33 DEB","OBJECT_ID":"1997-051JZ","EPOCH":"2026-04-26T17:40:10.132032","MEAN_MOTION":14.14043067,"ECCENTRICITY":0.0175382,"INCLINATION":86.393,"RA_OF_ASC_NODE":227.3283,"ARG_OF_PERICENTER":230.4706,"MEAN_ANOMALY":128.0868,"EPHEMERIS_TYPE":0,"CLASSIFICATION_TYPE":"U","NORAD_CAT_ID":34648,"ELEMENT_SET_NO":999,"REV_AT_EPOCH":86867,"BSTAR":0.0041012,"MEAN_MOTION_DOT":9.054e-5,"MEAN_MOTION_DDOT":0},{"OBJECT_NAME":"IRIDIUM 33 DEB","OBJECT_ID":"1997-051KC","EPOCH":"2026-04-26T21:03:50.689728","MEAN_MOTION":14.27818231,"ECCENTRICITY":0.0136283,"INCLINATION":86.277,"RA_OF_ASC_NODE":82.9288,"ARG_OF_PERICENTER":127.1241,"MEAN_ANOMALY":234.2495,"EPHEMERIS_TYPE":0,"CLASSIFICATION_TYPE":"U","NORAD_CAT_ID":34651,"ELEMENT_SET_NO":999,"REV_AT_EPOCH":87823,"BSTAR":0.0022813,"MEAN_MOTION_DOT":6.247e-5,"MEAN_MOTION_DDOT":0},{"OBJECT_NAME":"IRIDIUM 33 DEB","OBJECT_ID":"1997-051KD","EPOCH":"2026-04-26T10:37:09.200640","MEAN_MOTION":14.63312537,"ECCENTRICITY":0.00273687,"INCLINATION":86.3262,"RA_OF_ASC_NODE":279.9528,"ARG_OF_PERICENTER":191.69,"MEAN_ANOMALY":197.6855,"EPHEMERIS_TYPE":0,"CLASSIFICATION_TYPE":"U","NORAD_CAT_ID":34652,"ELEMENT_SET_NO":999,"REV_AT_EPOCH":90453,"BSTAR":0.0009163379,"MEAN_MOTION_DOT":4.775e-5,"MEAN_MOTION_DDOT":0},{"OBJECT_NAME":"IRIDIUM 33 DEB","OBJECT_ID":"1997-051KM","EPOCH":"2026-04-26T14:25:02.753184","MEAN_MOTION":14.5563846,"ECCENTRICITY":0.000777,"INCLINATION":86.3782,"RA_OF_ASC_NODE":338.3705,"ARG_OF_PERICENTER":284.5541,"MEAN_ANOMALY":107.4023,"EPHEMERIS_TYPE":0,"CLASSIFICATION_TYPE":"U","NORAD_CAT_ID":34690,"ELEMENT_SET_NO":999,"REV_AT_EPOCH":90056,"BSTAR":0.00042379,"MEAN_MOTION_DOT":1.871e-5,"MEAN_MOTION_DDOT":0},{"OBJECT_NAME":"IRIDIUM 33 DEB","OBJECT_ID":"1997-051KT","EPOCH":"2026-04-26T02:40:14.340576","MEAN_MOTION":14.75031196,"ECCENTRICITY":0.00618243,"INCLINATION":86.1911,"RA_OF_ASC_NODE":324.4756,"ARG_OF_PERICENTER":64.0355,"MEAN_ANOMALY":85.8412,"EPHEMERIS_TYPE":0,"CLASSIFICATION_TYPE":"U","NORAD_CAT_ID":34696,"ELEMENT_SET_NO":999,"REV_AT_EPOCH":88647,"BSTAR":0.0037480143,"MEAN_MOTION_DOT":0.00026109,"MEAN_MOTION_DDOT":0},{"OBJECT_NAME":"IRIDIUM 33 DEB","OBJECT_ID":"1997-051LJ","EPOCH":"2026-04-26T15:45:41.651712","MEAN_MOTION":14.40863372,"ECCENTRICITY":0.0017815,"INCLINATION":86.3395,"RA_OF_ASC_NODE":334.8765,"ARG_OF_PERICENTER":128.683,"MEAN_ANOMALY":295.2655,"EPHEMERIS_TYPE":0,"CLASSIFICATION_TYPE":"U","NORAD_CAT_ID":34765,"ELEMENT_SET_NO":999,"REV_AT_EPOCH":89556,"BSTAR":0.00033335,"MEAN_MOTION_DOT":1.09e-5,"MEAN_MOTION_DDOT":0},{"OBJECT_NAME":"IRIDIUM 33 DEB","OBJECT_ID":"1997-051MH","EPOCH":"2026-04-25T20:42:08.341920","MEAN_MOTION":14.53320394,"ECCENTRICITY":0.00202195,"INCLINATION":86.3959,"RA_OF_ASC_NODE":353.165,"ARG_OF_PERICENTER":13.0659,"MEAN_ANOMALY":119.8437,"EPHEMERIS_TYPE":0,"CLASSIFICATION_TYPE":"U","NORAD_CAT_ID":34833,"ELEMENT_SET_NO":999,"REV_AT_EPOCH":89662,"BSTAR":0.00053950023,"MEAN_MOTION_DOT":2.267e-5,"MEAN_MOTION_DDOT":0}]
