IRIDIUM 33 DEB          
1 34487U 97051GC  26116.02108648  .00000554  00000+0  15697-3 0  9997
2 34487  86.3404 314.5817 0032527  49.2149 102.6370 14.43434837901853
IRIDIUM 33 DEB          
1 34492U 97051GH  26115.21251245  .00015585  00000+0  51588-2 0  9993
2 34492  86.4703 280.5458 0184874 167.7052   7.5808 14.28570693869628
IRIDIUM 33 DEB          
1 34497U 97051GN  26116.63076683  .00001340  00000+0  51710-3 0  9998
2 34497  86.2812 354.7704 0077215 263.8696 124.8489 14.27960617888089
IRIDIUM 33 DEB          
1 34508U 97051GZ  26116.79229272  .00004065  00000+0  12662-2 0  9991
2 34508  86.3715  45.3035 0066737  88.9934 271.8910 14.39427031892519
IRIDIUM 33 DEB          
1 34521U 97051HN  26116.88189448  .00005708  00000+0  10558-2 0  9993
2 34521  86.3787 330.9761 0004217 131.3023 228.8553 14.65236296904507
IRIDIUM 33 DEB          
1 34525U 97051HS  26116.89386088  .00000899  00000+0  26122-3 0  9998
2 34525  86.3754 349.1609 0005421  29.0327 345.6999 14.43281532900378
IRIDIUM 33 DEB          
1 34529U 97051HW  26116.58071895  .00000591  00000+0  17863-3 0  9996
2 34529  86.3645 337.9505 0006886 109.4997 250.6946 14.40795522900837
IRIDIUM 33 DEB          
1 34538U 97051JF  26116.75807377  .00002196  00000+0  64002-3 0  9997
2 34538  86.2722 306.3889 0032404 237.0508 252.4091 14.43484796897037
IRIDIUM 33 DEB          
1 34540U 97051JH  26116.84020343  .00011199  00000+0  15293-2 0  9990
2 34540  86.3085 245.6563 0016450  67.2250  58.3874 14.78426023910155
IRIDIUM 33 DEB          
1 34648U 97051JZ  26116.73622838  .00009054  00000+0  41012-2 0  9999
2 34648  86.3930 227.3283 0175382 230.4706 128.0868 14.14043067868679
IRIDIUM 33 DEB          
1 34651U 97051KC  26116.87767002  .00006247  00000+0  22813-2 0  9990
2 34651  86.2770  82.9288 0136283 127.1241 234.2495 14.27818231878233
IRIDIUM 33 DEB          
1 34652U 97051KD  26116.44246760  .00004775  00000+0  91634-3 0  9999
2 34652  86.3262 279.9528 0027368 191.6900 197.6855 14.63312537904530
IRIDIUM 33 DEB          
1 34690U 97051KM  26116.60072631  .00001871  00000+0  42379-3 0  9999
2 34690  86.3782 338.3705 0007770 284.5541 107.4023 14.55638460900566
IRIDIUM 33 DEB          
1 34696U 97051KT  26116.11127709  .00026109  00000+0  37480-2 0  9995
2 34696  86.1911 324.4756 0061824  64.0355  85.8412 14.75031196886479
IRIDIUM 33 DEB          
1 34765U 97051LJ  26116.65673208  .00001090  00000+0  33335-3 0  9999
2 34765  86.3395 334.8765 0017815 128.6830 295.2655 14.40863372895562
IRIDIUM 33 DEB          
1 34833U 97051MH  26115.86259655  .00002267  00000+0  53950-3 0  9995
2 34833  86.3959 353.1650 0020219  13.0659 119.8437 14.53320394896622
